CUTE-1 (CO-55)          
1 27844U 03031E   26140.28903380  .00000176  00000+0  95378-4 0  9997
2 27844  98.6744 149.1989 0008286 266.0889  93.9343 14.24316564187709
CUBESAT XI-IV (CO-57)   
1 27848U 03031J   26140.96636525  .00000143  00000+0  81781-4 0  9997
2 27848  98.6774 149.6022 0008231 285.2737  74.7531 14.23604415187502
CUBESAT XI-V            
1 28895U 05043F   26140.95153706  .00000799  00000+0  13401-3 0  9999
2 28895  98.2956 296.0075 0012825 293.8253  66.1609 14.72548922 97741
CUTE-1.7+APD II (CO-65) 
1 32785U 08021C   26140.93440809  .00003173  00000+0  20381-3 0  9996
2 32785  97.8272 121.7954 0010696 116.4176 243.8151 15.09159393981084
CANX-2                  
1 32790U 08021H   26140.17381223  .00002089  00000+0  15007-3 0  9996
2 32790  97.8620 119.4156 0011550 132.9163 227.3034 15.05385874980597
SEEDS II (CO-66)        
1 32791U 08021J   26140.96838990  .00011601  00000+0  38132-3 0  9996
2 32791  97.7528 137.5897 0004651  68.4532 291.7203 15.31710918983129
SWISSCUBE               
1 35932U 09051B   26140.66432149  .00000602  00000+0  12876-3 0  9999
2 35932  98.4053  48.0721 0005716 307.3217  52.7462 14.62420861885132
BEESAT-1                
1 35933U 09051C   26140.45415592  .00000522  00000+0  11466-3 0  9995
2 35933  98.3982  47.5514 0004510 327.5835  32.5088 14.61668848885136
ITUPSAT1                
1 35935U 09051E   26140.69486716  .00000461  00000+0  10540-3 0  9993
2 35935  98.4067  47.0168 0006900 334.3555  25.7302 14.60393302884729
TISAT 1                 
1 36799U 10035E   26140.53828391  .00014056  00000+0  47855-3 0  9992
2 36799  98.0706  84.6627 0002805  39.3668 320.7774 15.30538753863477
AEROCUBE 4.5A           
1 38767U 12048K   26140.68469170  .00141719  00000+0  74445-3 0  9999
2 38767  64.6286 126.2539 0018233 215.8551 144.1381 15.79850050368297
STRAND-1                
1 39090U 13009E   26140.97298443  .00000153  00000+0  65920-4 0  9997
2 39090  98.3916 321.8785 0007732 318.8197  41.2406 14.37145084693157
BRITE-AUSTRIA           
1 39091U 13009F   26140.97416358  .00000101  00000+0  48862-4 0  9994
2 39091  98.3988 321.0846 0009443 327.5358  32.5247 14.36529931693145
NEE-01 PEGASO           
1 39151U 13018B   26140.32904150  .00001560  00000+0  15395-3 0  9996
2 39151  98.1188 283.5678 0011376 253.7412 106.2555 14.93503212706543
POPACS 2                
1 39269U 13055E   26140.52455433  .00009840  00000+0  16915-3 0  9992
2 39269  80.9910 175.8448 0418436 282.7737  72.7034 14.90555413659096
POPACS 3                
1 39270U 13055F   26140.76430709  .00011944  00000+0  28350-3 0  9993
2 39270  81.0017 258.9012 0554661 153.3897 209.6959 14.55431784634566
ZACUBE-1 (TSHEPISOSAT)  
1 39417U 13066B   26140.87675288  .00003052  00000+0  24019-3 0  9992
2 39417  97.8121 103.0658 0040803 344.5109  15.4863 15.00954850676630
WNISAT-1                
1 39423U 13066H   26140.96648866  .00000295  00000+0  62994-4 0  9992
2 39423  97.7170 292.0599 0162140 318.0202  40.8663 14.58023337662760
TRITON-1                
1 39427U 13066M   26140.94451509  .00001531  00000+0  18896-3 0  9995
2 39427  97.8265  51.3723 0089407 324.1449  35.3783 14.81575363670050
GOMX-1                  
1 39430U 13066Q   26140.94726470  .00001455  00000+0  22435-3 0  9990
2 39430  97.6495 343.1282 0129086 164.3418 196.1840 14.69338396665915
CUBEBUG-2 (LO-74)       
1 39440U 13066AA  26140.59658574  .00002516  00000+0  23645-3 0  9994
2 39440  97.8896  89.4669 0059385 118.1105 242.6134 14.93520077672878
NEE-02 KRYSAOR          
1 39441U 13066AB  26140.34243893  .00001052  00000+0  12059-3 0  9993
2 39441  97.8886  79.7609 0066681 159.7585 200.6298 14.86498349672068
FUNCUBE-1 (AO-73)       
1 39444U 13066AE  26140.67569056  .00005251  00000+0  33102-3 0  9991
2 39444  97.8265 111.5579 0034836 298.9376  60.8360 15.09093359675511
UWE-3                   
1 39446U 13066AG  26139.87297777  .00002931  00000+0  25518-3 0  9995
2 39446  97.8681  95.7656 0050416  55.1859 305.4090 14.96754231673340
BRITE-CA1 (TORONTO)     
1 40020U 14033L   26140.31618105  .00000407  00000+0  68905-4 0  9997
2 40020  97.9701 269.7647 0078724   7.1930 353.0388 14.72634211638110
DUCHIFAT-1              
1 40021U 14033M   26140.40698236  .00060331  00000+0  76680-3 0  9991
2 40021  98.0489 195.7904 0006232 167.3565 192.7847 15.59181343651413
NANOSATC-BR1            
1 40024U 14033Q   26140.81997227  .00011461  00000+0  39149-3 0  9990
2 40024  98.0739 170.8017 0001660 271.9206  88.1843 15.30489514649799
QB50P1                  
1 40025U 14033R   26140.46520314  .00005334  00000+0  26764-3 0  9992
2 40025  98.0975 149.6777 0007608 331.3081  28.7731 15.17779881648822
QB50P2                  
1 40032U 14033Y   26140.95377323  .00004458  00000+0  24427-3 0  9994
2 40032  98.0754 136.1486 0005673 267.6607  92.3974 15.14764618648542
PERSEUS-M2              
1 40037U 14033AD  26140.96459336  .00000980  00000+0  94114-4 0  9992
2 40037  97.9967  90.9567 0013115  36.1623 324.0481 14.95418571646712
