OBJECT_NAME,OBJECT_ID,EPOCH,MEAN_MOTION,ECCENTRICITY,INCLINATION,RA_OF_ASC_NODE,ARG_OF_PERICENTER,MEAN_ANOMALY,EPHEMERIS_TYPE,CLASSIFICATION_TYPE,NORAD_CAT_ID,ELEMENT_SET_NO,REV_AT_EPOCH,BSTAR,MEAN_MOTION_DOT,MEAN_MOTION_DDOT
CUTE-1 (CO-55),2003-031E,2026-05-20T06:56:12.520320,14.24316564,.0008286,98.6744,149.1989,266.0889,93.9343,0,U,27844,999,18770,.95378E-4,.176E-5,0
CUBESAT XI-IV (CO-57),2003-031J,2026-05-20T23:11:33.957600,14.23604415,.00082317,98.6774,149.6022,285.2737,74.7531,0,U,27848,999,18750,.81780703E-4,.143E-5,0
CUBESAT XI-V,2005-043F,2026-05-20T22:50:12.801984,14.72548922,.0012825,98.2956,296.0075,293.8253,66.1609,0,U,28895,999,9774,.13401075E-3,.799E-5,0
CUTE-1.7+APD II (CO-65),2008-021C,2026-05-20T22:25:32.858976,15.09159393,.00106962,97.8272,121.7954,116.4176,243.8151,0,U,32785,999,98108,.20381404E-3,.3173E-4,0
CANX-2,2008-021H,2026-05-20T04:10:17.376672,15.05385874,.00115506,97.8620,119.4156,132.9163,227.3034,0,U,32790,999,98059,.15006648E-3,.2089E-4,0
SEEDS II (CO-66),2008-021J,2026-05-20T23:14:28.887360,15.31710918,.0004651,97.7528,137.5897,68.4532,291.7203,0,U,32791,999,98312,.3813194E-3,.11601E-3,0
SWISSCUBE,2009-051B,2026-05-20T15:56:37.376736,14.62420861,.00057163,98.4053,48.0721,307.3217,52.7462,0,U,35932,999,88513,.12875597E-3,.602E-5,0
BEESAT-1,2009-051C,2026-05-20T10:53:59.071488,14.61668848,.00045104,98.3982,47.5514,327.5835,32.5088,0,U,35933,999,88513,.11465798E-3,.522E-5,0
ITUPSAT1,2009-051E,2026-05-20T16:40:36.522624,14.60393302,.00069001,98.4067,47.0168,334.3555,25.7302,0,U,35935,999,88472,.10539842E-3,.461E-5,0
TISAT 1,2010-035E,2026-05-20T12:55:07.729824,15.30538753,.00028053,98.0706,84.6627,39.3668,320.7774,0,U,36799,999,86347,.47855205E-3,.14056E-3,0
AEROCUBE 4.5A,2012-048K,2026-05-20T16:25:57.362880,15.79850050,.00182333,64.6286,126.2539,215.8551,144.1381,0,U,38767,999,36829,.7444486E-3,.141719E-2,0
STRAND-1,2013-009E,2026-05-20T23:21:05.854752,14.37145084,.00077321,98.3916,321.8785,318.8197,41.2406,0,U,39090,999,69315,.65919618E-4,.153E-5,0
BRITE-AUSTRIA,2013-009F,2026-05-20T23:22:47.733312,14.36529931,.00094435,98.3988,321.0846,327.5358,32.5247,0,U,39091,999,69314,.48862011E-4,.101E-5,0
NEE-01 PEGASO,2013-018B,2026-05-20T07:53:49.185600,14.93503212,.00113766,98.1188,283.5678,253.7412,106.2555,0,U,39151,999,70654,.15394882E-3,.156E-4,0
POPACS 2,2013-055E,2026-05-20T12:35:21.494112,14.90555413,.04184366,80.9910,175.8448,282.7737,72.7034,0,U,39269,999,65909,.16915038E-3,.984E-4,0
POPACS 3,2013-055F,2026-05-20T18:20:36.132576,14.55431784,.05546617,81.0017,258.9012,153.3897,209.6959,0,U,39270,999,63456,.28350046E-3,.11944E-3,0
ZACUBE-1 (TSHEPISOSAT),2013-066B,2026-05-20T21:02:31.448832,15.00954850,.00408036,97.8121,103.0658,344.5109,15.4863,0,U,39417,999,67663,.24019357E-3,.3052E-4,0
WNISAT-1,2013-066H,2026-05-20T23:11:44.620224,14.58023337,.01621404,97.7170,292.0599,318.0202,40.8663,0,U,39423,999,66276,.62994173E-4,.295E-5,0
TRITON-1,2013-066M,2026-05-20T22:40:06.103776,14.81575363,.00894076,97.8265,51.3723,324.1449,35.3783,0,U,39427,999,67005,.18895866E-3,.1531E-4,0
GOMX-1,2013-066Q,2026-05-20T22:44:03.670080,14.69338396,.01290861,97.6495,343.1282,164.3418,196.1840,0,U,39430,999,66591,.22435104E-3,.1455E-4,0
CUBEBUG-2 (LO-74),2013-066AA,2026-05-20T14:19:05.007936,14.93520077,.0059385,97.8896,89.4669,118.1105,242.6134,0,U,39440,999,67287,.23645483E-3,.2516E-4,0
NEE-02 KRYSAOR,2013-066AB,2026-05-20T08:13:06.723552,14.86498349,.00666819,97.8886,79.7609,159.7585,200.6298,0,U,39441,999,67206,.1205875E-3,.1052E-4,0
FUNCUBE-1 (AO-73),2013-066AE,2026-05-20T16:12:59.664384,15.09093359,.0034836,97.8265,111.5579,298.9376,60.8360,0,U,39444,999,67551,.33101689E-3,.5251E-4,0
UWE-3,2013-066AG,2026-05-19T20:57:05.279328,14.96754231,.00504162,97.8681,95.7656,55.1859,305.4090,0,U,39446,999,67334,.25518464E-3,.2931E-4,0
BRITE-CA1 (TORONTO),2014-033L,2026-05-20T07:35:18.042720,14.72634211,.00787246,97.9701,269.7647,7.1930,353.0388,0,U,40020,999,63811,.68904928E-4,.407E-5,0
DUCHIFAT-1,2014-033M,2026-05-20T09:46:03.275904,15.59181343,.00062329,98.0489,195.7904,167.3565,192.7847,0,U,40021,999,65141,.7667959E-3,.60331E-3,0
NANOSATC-BR1,2014-033Q,2026-05-20T19:40:45.604128,15.30489514,.000166,98.0739,170.8017,271.9206,88.1843,0,U,40024,999,64979,.39148633E-3,.11461E-3,0
QB50P1,2014-033R,2026-05-20T11:09:53.551296,15.17779881,.00076084,98.0975,149.6777,331.3081,28.7731,0,U,40025,999,64882,.26763973E-3,.5334E-4,0
QB50P2,2014-033Y,2026-05-20T22:53:26.007072,15.14764618,.00056737,98.0754,136.1486,267.6607,92.3974,0,U,40032,999,64854,.24427334E-3,.4458E-4,0
PERSEUS-M2,2014-033AD,2026-05-20T23:09:00.866304,14.95418571,.00131156,97.9967,90.9567,36.1623,324.0481,0,U,40037,999,64671,.94114073E-4,.98E-5,0
